[{"OBJECT_NAME":"STARLINK-34015","OBJECT_ID":"2025-093U","EPOCH":"2026-03-09T16:00:03.000096","MEAN_MOTION":15.27584294,"ECCENTRICITY":0.00013024,"INCLINATION":43.0021,"RA_OF_ASC_NODE":78.3577,"ARG_OF_PERICENTER":259.967,"MEAN_ANOMALY":136.0451,"EPHEMERIS_TYPE":0,"CLASSIFICATION_TYPE":"U","NORAD_CAT_ID":63854,"ELEMENT_SET_NO":999,"REV_AT_EPOCH":567,"BSTAR":-0.00046418368,"MEAN_MOTION_DOT":-0.00013015,"MEAN_MOTION_DDOT":0},{"OBJECT_NAME":"KUIPER-00274","OBJECT_ID":"2026-030AE","EPOCH":"2026-03-09T22:00:01.999584","MEAN_MOTION":15.29896925,"ECCENTRICITY":0.00182929,"INCLINATION":51.8831,"RA_OF_ASC_NODE":218.6923,"ARG_OF_PERICENTER":71.2033,"MEAN_ANOMALY":115.2248,"EPHEMERIS_TYPE":0,"CLASSIFICATION_TYPE":"U","NORAD_CAT_ID":67792,"ELEMENT_SET_NO":999,"REV_AT_EPOCH":410,"BSTAR":0.0017989756,"MEAN_MOTION_DOT":0.00053102,"MEAN_MOTION_DDOT":0}]
